start=new Date('2021-09-07T00:00:00.000Z').valueOf();
sats=[{"OBJECT_NAME":"STARLINK-1970","PERIAPSIS":"546.143","CENTER_NAME":"EARTH","MEAN_MOTION_DOT":"-0.00000728","GP_ID":"184225709","ECCENTRICITY":"0.00015710","MEAN_ELEMENT_THEORY":"SGP4","INCLINATION":"53.0555","LAUNCH_DATE":"2021-02-04","DECAY_DATE":null,"MEAN_MOTION":"15.06394346","REV_AT_EPOCH":"3297","RA_OF_ASC_NODE":"196.9406","SEMIMAJOR_AXIS":"6925.366","EPOCH":"2021-09-06T13:09:19.954368","COUNTRY_CODE":"US","APOAPSIS":"548.319","TLE_LINE1":"1 47571U 21009Z   21249.54814762 -.00000728  00000-0 -29968-4 0  9998","EPHEMERIS_TYPE":"0","NORAD_CAT_ID":"47571","ELEMENT_SET_NO":"999","ARG_OF_PERICENTER":"33.0723","TLE_LINE2":"2 47571  53.0555 196.9406 0001571  33.0723 327.0364 15.06394346 32973","PERIOD":"95.592","CLASSIFICATION_TYPE":"U","REF_FRAME":"TEME","RCS_SIZE":"LARGE","MEAN_MOTION_DDOT":"0.0000000000000","OBJECT_TYPE":"PAYLOAD","TIME_SYSTEM":"UTC","FILE":"3109923","MEAN_ANOMALY":"327.0364","BSTAR":"-0.00002996800000","OBJECT_ID":"2021-009Z","SITE":"AFETR"},{"MEAN_MOTION":"15.06397743","RA_OF_ASC_NODE":"196.7159","REV_AT_EPOCH":"3298","SEMIMAJOR_AXIS":"6925.355","EPOCH":"2021-09-06T14:18:19.670400","DECAY_DATE":null,"LAUNCH_DATE":"2021-02-04","MEAN_ELEMENT_THEORY":"SGP4","INCLINATION":"53.0543","GP_ID":"184226459","ECCENTRICITY":"0.00015180","MEAN_MOTION_DOT":"-0.00000109","OBJECT_NAME":"STARLINK-1971","CENTER_NAME":"EARTH","PERIAPSIS":"546.169","MEAN_ANOMALY":"306.6164","BSTAR":"0.00001155700000","OBJECT_ID":"2021-009AA","SITE":"AFETR","FILE":"3109923","RCS_SIZE":"LARGE","MEAN_MOTION_DDOT":"0.0000000000000","TIME_SYSTEM":"UTC","OBJECT_TYPE":"PAYLOAD","PERIOD":"95.592","CLASSIFICATION_TYPE":"U","REF_FRAME":"TEME","ELEMENT_SET_NO":"999","TLE_LINE2":"2 47572  53.0543 196.7159 0001518  53.4964 306.6164 15.06397743 32984","ARG_OF_PERICENTER":"53.4964","NORAD_CAT_ID":"47572","EPHEMERIS_TYPE":"0","TLE_LINE1":"1 47572U 21009AA  21249.59606100 -.00000109  00000-0  11557-4 0  9996","COUNTRY_CODE":"US","APOAPSIS":"548.272"},{"LAUNCH_DATE":"2021-02-04","DECAY_DATE":null,"REV_AT_EPOCH":"3301","RA_OF_ASC_NODE":"195.6467","MEAN_MOTION":"15.06399612","EPOCH":"2021-09-06T20:08:38.180256","SEMIMAJOR_AXIS":"6925.350","PERIAPSIS":"546.215","CENTER_NAME":"EARTH","OBJECT_NAME":"STARLINK-1975","MEAN_MOTION_DOT":"0.00000176","ECCENTRICITY":"0.00014430","GP_ID":"184225207","MEAN_ELEMENT_THEORY":"SGP4","INCLINATION":"53.0511","PERIOD":"95.592","CLASSIFICATION_TYPE":"U","REF_FRAME":"TEME","MEAN_MOTION_DDOT":"0.0000000000000","RCS_SIZE":"LARGE","TIME_SYSTEM":"UTC","OBJECT_TYPE":"PAYLOAD","FILE":"3109923","BSTAR":"0.00003070000000","MEAN_ANOMALY":"311.9231","SITE":"AFETR","OBJECT_ID":"2021-009AB","COUNTRY_CODE":"US","APOAPSIS":"548.214","EPHEMERIS_TYPE":"0","TLE_LINE1":"1 47573U 21009AB  21249.83933079  .00000176  00000-0  30700-4 0  9996","NORAD_CAT_ID":"47573","TLE_LINE2":"2 47573  53.0511 195.6467 0001443  48.1881 311.9231 15.06399612 33012","ARG_OF_PERICENTER":"48.1881","ELEMENT_SET_NO":"999"},{"BSTAR":"0.00006522500000","MEAN_ANOMALY":"292.1425","SITE":"AFETR","OBJECT_ID":"2021-009AC","FILE":"3109923","RCS_SIZE":"LARGE","MEAN_MOTION_DDOT":"0.0000000000000","OBJECT_TYPE":"PAYLOAD","TIME_SYSTEM":"UTC","PERIOD":"95.593","CLASSIFICATION_TYPE":"U","REF_FRAME":"TEME","ARG_OF_PERICENTER":"67.9702","TLE_LINE2":"2 47574  53.0548 226.4476 0001296  67.9702 292.1425 15.06392460 32561","ELEMENT_SET_NO":"999","NORAD_CAT_ID":"47574","TLE_LINE1":"1 47574U 21009AC  21249.65597016  .00000690  00000-0  65225-4 0  9995","EPHEMERIS_TYPE":"0","COUNTRY_CODE":"US","APOAPSIS":"548.134","RA_OF_ASC_NODE":"226.4476","REV_AT_EPOCH":"3256","MEAN_MOTION":"15.06392460","EPOCH":"2021-09-06T15:44:35.821824","SEMIMAJOR_AXIS":"6925.372","DECAY_DATE":null,"LAUNCH_DATE":"2021-02-04","MEAN_ELEMENT_THEORY":"SGP4","INCLINATION":"53.0548","ECCENTRICITY":"0.00012960","GP_ID":"184224958","MEAN_MOTION_DOT":"0.00000690","CENTER_NAME":"EARTH","PERIAPSIS":"546.339","OBJECT_NAME":"STARLINK-1976"},{"TLE_LINE2":"2 47575  53.0543 226.5038 0001292  55.7692 304.3419 15.06387969 32568","ARG_OF_PERICENTER":"55.7692","ELEMENT_SET_NO":"999","NORAD_CAT_ID":"47575","EPHEMERIS_TYPE":"0","TLE_LINE1":"1 47575U 21009AD  21249.64490613  .00000956  00000-0  83101-4 0  9998","APOAPSIS":"548.145","COUNTRY_CODE":"US","SITE":"AFETR","OBJECT_ID":"2021-009AD","BSTAR":"0.00008310100000","MEAN_ANOMALY":"304.3419","FILE":"3109923","TIME_SYSTEM":"UTC","OBJECT_TYPE":"PAYLOAD","MEAN_MOTION_DDOT":"0.0000000000000","RCS_SIZE":"LARGE","REF_FRAME":"TEME","CLASSIFICATION_TYPE":"U","PERIOD":"95.593","INCLINATION":"53.0543","MEAN_ELEMENT_THEORY":"SGP4","ECCENTRICITY":"0.00012920","GP_ID":"184226209","MEAN_MOTION_DOT":"0.00000956","PERIAPSIS":"546.356","CENTER_NAME":"EARTH","OBJECT_NAME":"STARLINK-1977","EPOCH":"2021-09-06T15:28:39.889632","SEMIMAJOR_AXIS":"6925.385","RA_OF_ASC_NODE":"226.5038","REV_AT_EPOCH":"3256","MEAN_MOTION":"15.06387969","DECAY_DATE":null,"LAUNCH_DATE":"2021-02-04"},{"CLASSIFICATION_TYPE":"U","PERIOD":"95.592","REF_FRAME":"TEME","RCS_SIZE":"LARGE","MEAN_MOTION_DDOT":"0.0000000000000","TIME_SYSTEM":"UTC","OBJECT_TYPE":"PAYLOAD","FILE":"3109923","BSTAR":"-0.00001187400000","MEAN_ANOMALY":"294.9203","SITE":"AFETR","OBJECT_ID":"2021-009AE","COUNTRY_CODE":"US","APOAPSIS":"548.573","EPHEMERIS_TYPE":"0","TLE_LINE1":"1 47576U 21009AE  21249.81077131 -.00000459  00000-0 -11874-4 0  9992","NORAD_CAT_ID":"47576","ARG_OF_PERICENTER":"65.1988","TLE_LINE2":"2 47576  53.0566 185.7710 0001940  65.1988 294.9203 15.06394804 33157","ELEMENT_SET_NO":"999","LAUNCH_DATE":"2021-02-04","DECAY_DATE":null,"REV_AT_EPOCH":"3315","RA_OF_ASC_NODE":"185.7710","MEAN_MOTION":"15.06394804","EPOCH":"2021-09-06T19:27:30.641184","SEMIMAJOR_AXIS":"6925.364","PERIAPSIS":"545.886","CENTER_NAME":"EARTH","OBJECT_NAME":"STARLINK-1978","MEAN_MOTION_DOT":"-0.00000459","ECCENTRICITY":"0.00019400","GP_ID":"184225960","MEAN_ELEMENT_THEORY":"SGP4","INCLINATION":"53.0566"},{"FILE":"3109923","OBJECT_ID":"2021-009AF","SITE":"AFETR","MEAN_ANOMALY":"315.8790","BSTAR":"-0.00003222500000","REF_FRAME":"TEME","PERIOD":"95.593","CLASSIFICATION_TYPE":"U","TIME_SYSTEM":"UTC","OBJECT_TYPE":"PAYLOAD","RCS_SIZE":"LARGE","MEAN_MOTION_DDOT":"0.0000000000000","NORAD_CAT_ID":"47577","ELEMENT_SET_NO":"999","TLE_LINE2":"2 47577  53.0599 201.7656 0001381  44.2309 315.8790 15.06394315 32910","ARG_OF_PERICENTER":"44.2309","APOAPSIS":"548.187","COUNTRY_CODE":"US","EPHEMERIS_TYPE":"0","TLE_LINE1":"1 47577U 21009AF  21249.58638967 -.00000761  00000-0 -32225-4 0  9996","DECAY_DATE":null,"SEMIMAJOR_AXIS":"6925.366","EPOCH":"2021-09-06T14:04:24.067488","MEAN_MOTION":"15.06394315","REV_AT_EPOCH":"3291","RA_OF_ASC_NODE":"201.7656","LAUNCH_DATE":"2021-02-04","GP_ID":"184224708","ECCENTRICITY":"0.00013810","INCLINATION":"53.0599","MEAN_ELEMENT_THEORY":"SGP4","OBJECT_NAME":"STARLINK-1979","PERIAPSIS":"546.275","CENTER_NAME":"EARTH","MEAN_MOTION_DOT":"-0.00000761"},{"OBJECT_NAME":"STARLINK-1980","PERIAPSIS":"546.378","CENTER_NAME":"EARTH","MEAN_MOTION_DOT":"0.00001090","GP_ID":"184198035","ECCENTRICITY":"0.00011770","INCLINATION":"53.0543","MEAN_ELEMENT_THEORY":"SGP4","LAUNCH_DATE":"2021-02-04","DECAY_DATE":null,"SEMIMAJOR_AXIS":"6925.328","EPOCH":"2021-09-06T09:09:10.336032","MEAN_MOTION":"15.06406589","RA_OF_ASC_NODE":"207.6851","REV_AT_EPOCH":"3280","APOAPSIS":"548.008","COUNTRY_CODE":"US","EPHEMERIS_TYPE":"0","TLE_LINE1":"1 47578U 21009AG  21249.38136963  .00001090  00000-0  92042-4 0  9991","NORAD_CAT_ID":"47578","ELEMENT_SET_NO":"999","TLE_LINE2":"2 47578  53.0543 207.6851 0001177  41.2666 318.8412 15.06406589 32807","ARG_OF_PERICENTER":"41.2666","REF_FRAME":"TEME","CLASSIFICATION_TYPE":"U","PERIOD":"95.592","OBJECT_TYPE":"PAYLOAD","TIME_SYSTEM":"UTC","RCS_SIZE":"LARGE","MEAN_MOTION_DDOT":"0.0000000000000","FILE":"3109699","OBJECT_ID":"2021-009AG","SITE":"AFETR","MEAN_ANOMALY":"318.8412","BSTAR":"0.00009204200000"},{"NORAD_CAT_ID":"47579","ELEMENT_SET_NO":"999","TLE_LINE2":"2 47579  53.0548 195.3822 0001520  62.7056 297.4088 15.06397788 33023","ARG_OF_PERICENTER":"62.7056","COUNTRY_CODE":"US","APOAPSIS":"548.273","EPHEMERIS_TYPE":"0","TLE_LINE1":"1 47579U 21009AH  21249.89461946  .00001028  00000-0  87898-4 0  9994","FILE":"3109923","MEAN_ANOMALY":"297.4088","BSTAR":"0.00008789800000","OBJECT_ID":"2021-009AH","SITE":"AFETR","CLASSIFICATION_TYPE":"U","PERIOD":"95.592","REF_FRAME":"TEME","MEAN_MOTION_DDOT":"0.0000000000000","RCS_SIZE":"LARGE","OBJECT_TYPE":"PAYLOAD","TIME_SYSTEM":"UTC","GP_ID":"184225710","ECCENTRICITY":"0.00015200","MEAN_ELEMENT_THEORY":"SGP4","INCLINATION":"53.0548","OBJECT_NAME":"STARLINK-1981","CENTER_NAME":"EARTH","PERIAPSIS":"546.168","MEAN_MOTION_DOT":"0.00001028","DECAY_DATE":null,"MEAN_MOTION":"15.06397788","RA_OF_ASC_NODE":"195.3822","REV_AT_EPOCH":"3302","SEMIMAJOR_AXIS":"6925.355","EPOCH":"2021-09-06T21:28:15.121344","LAUNCH_DATE":"2021-02-04"},{"DECAY_DATE":null,"EPOCH":"2021-09-06T14:01:04.769472","SEMIMAJOR_AXIS":"6925.371","RA_OF_ASC_NODE":"206.7780","REV_AT_EPOCH":"3283","MEAN_MOTION":"15.06392743","LAUNCH_DATE":"2021-02-04","ECCENTRICITY":"0.00015060","GP_ID":"184226460","INCLINATION":"53.0531","MEAN_ELEMENT_THEORY":"SGP4","CENTER_NAME":"EARTH","PERIAPSIS":"546.193","OBJECT_NAME":"STARLINK-1982","MEAN_MOTION_DOT":"0.00001041","FILE":"3109923","SITE":"AFETR","OBJECT_ID":"2021-009AJ","BSTAR":"0.00008879000000","MEAN_ANOMALY":"317.7057","REF_FRAME":"TEME","PERIOD":"95.593","CLASSIFICATION_TYPE":"U","OBJECT_TYPE":"PAYLOAD","TIME_SYSTEM":"UTC","MEAN_MOTION_DDOT":"0.0000000000000","RCS_SIZE":"LARGE","NORAD_CAT_ID":"47580","TLE_LINE2":"2 47580  53.0531 206.7780 0001506  42.4048 317.7057 15.06392743 32833","ARG_OF_PERICENTER":"42.4048","ELEMENT_SET_NO":"999","APOAPSIS":"548.279","COUNTRY_CODE":"US","EPHEMERIS_TYPE":"0","TLE_LINE1":"1 47580U 21009AJ  21249.58408298  .00001041  00000-0  88790-4 0  9990"}];
